CCSDS_OMM_VERS = 2.0
CREATION_DATE  = 
ORIGINATOR     = 

OBJECT_NAME    = XRISM
OBJECT_ID      = 2023-137A
CENTER_NAME    = EARTH
REF_FRAME      = TEME
TIME_SYSTEM    = UTC
MEAN_ELEMENT_THEORY = SGP/SGP4

EPOCH          = 2026-03-15T04:30:10.077696
MEAN_MOTION    = 15.11567104
ECCENTRICITY   = .00079352
INCLINATION    = 31.0008
RA_OF_ASC_NODE = 248.1007
ARG_OF_PERICENTER = 94.0094
MEAN_ANOMALY   = 266.1451

EPHEMERIS_TYPE = 0
CLASSIFICATION_TYPE = U
NORAD_CAT_ID   = 57800
ELEMENT_SET_NO = 999
REV_AT_EPOCH   = 13862
BSTAR          = .35278206E-3
MEAN_MOTION_DOT = .6235E-4
MEAN_MOTION_DDOT = 0

CCSDS_OMM_VERS = 2.0
CREATION_DATE  = 
ORIGINATOR     = 

OBJECT_NAME    = ACS3
OBJECT_ID      = 2024-077B
CENTER_NAME    = EARTH
REF_FRAME      = TEME
TIME_SYSTEM    = UTC
MEAN_ELEMENT_THEORY = SGP/SGP4

EPOCH          = 2026-03-15T06:11:09.023712
MEAN_MOTION    = 13.89881559
ECCENTRICITY   = .00646071
INCLINATION    = 97.2037
RA_OF_ASC_NODE = 14.1178
ARG_OF_PERICENTER = 63.2080
MEAN_ANOMALY   = 297.5673

EPHEMERIS_TYPE = 0
CLASSIFICATION_TYPE = U
NORAD_CAT_ID   = 59588
ELEMENT_SET_NO = 999
REV_AT_EPOCH   = 9497
BSTAR          = .20625178E-1
MEAN_MOTION_DOT = .25857E-3
MEAN_MOTION_DDOT = 0

CCSDS_OMM_VERS = 2.0
CREATION_DATE  = 
ORIGINATOR     = 

OBJECT_NAME    = SZ-21 MODULE
OBJECT_ID      = 2025-246C
CENTER_NAME    = EARTH
REF_FRAME      = TEME
TIME_SYSTEM    = UTC
MEAN_ELEMENT_THEORY = SGP/SGP4

EPOCH          = 2026-03-14T14:14:26.593440
MEAN_MOTION    = 15.68965402
ECCENTRICITY   = .00009103
INCLINATION    = 41.4735
RA_OF_ASC_NODE = 173.1648
ARG_OF_PERICENTER = 309.7124
MEAN_ANOMALY   = 50.3637

EPHEMERIS_TYPE = 0
CLASSIFICATION_TYPE = U
NORAD_CAT_ID   = 66515
ELEMENT_SET_NO = 999
REV_AT_EPOCH   = 1884
BSTAR          = .41125442E-3
MEAN_MOTION_DOT = .48778E-3
MEAN_MOTION_DDOT = 0

